[{"OBJECT_NAME":"YAM-10","OBJECT_ID":"2025-135BE","EPOCH":"2026-03-09T20:43:26.582304","MEAN_MOTION":14.91406744,"ECCENTRICITY":0.00023115,"INCLINATION":97.7596,"RA_OF_ASC_NODE":184.195,"ARG_OF_PERICENTER":348.9926,"MEAN_ANOMALY":11.1242,"EPHEMERIS_TYPE":0,"CLASSIFICATION_TYPE":"U","NORAD_CAT_ID":64580,"ELEMENT_SET_NO":999,"REV_AT_EPOCH":3905,"BSTAR":0.00037713307,"MEAN_MOTION_DOT":3.711e-5,"MEAN_MOTION_DDOT":0},{"OBJECT_NAME":"PRC TEST SPACECRAFT 4","OBJECT_ID":"2026-024A","EPOCH":"2026-03-09T23:05:37.112640","MEAN_MOTION":14.91688392,"ECCENTRICITY":0.00060629,"INCLINATION":49.9868,"RA_OF_ASC_NODE":21.492,"ARG_OF_PERICENTER":1.3709,"MEAN_ANOMALY":358.7249,"EPHEMERIS_TYPE":0,"CLASSIFICATION_TYPE":"U","NORAD_CAT_ID":67689,"ELEMENT_SET_NO":999,"REV_AT_EPOCH":462,"BSTAR":4.4693809e-5,"MEAN_MOTION_DOT":2.1e-6,"MEAN_MOTION_DDOT":0}]
